[{"OBJECT_NAME":"HJ-2A","OBJECT_ID":"2020-067A","EPOCH":"2026-03-09T22:54:37.031328","MEAN_MOTION":14.76559818,"ECCENTRICITY":0.00025704,"INCLINATION":97.8873,"RA_OF_ASC_NODE":149.6532,"ARG_OF_PERICENTER":194.0861,"MEAN_ANOMALY":166.0278,"EPHEMERIS_TYPE":0,"CLASSIFICATION_TYPE":"U","NORAD_CAT_ID":46478,"ELEMENT_SET_NO":999,"REV_AT_EPOCH":29361,"BSTAR":0.00012804668,"MEAN_MOTION_DOT":8.43e-6,"MEAN_MOTION_DDOT":0},{"OBJECT_NAME":"SL-14 R\/B","OBJECT_ID":"1992-094B","EPOCH":"2026-03-09T19:56:29.702112","MEAN_MOTION":14.80051902,"ECCENTRICITY":0.00233094,"INCLINATION":82.5276,"RA_OF_ASC_NODE":352.7335,"ARG_OF_PERICENTER":339.5847,"MEAN_ANOMALY":20.4431,"EPHEMERIS_TYPE":0,"CLASSIFICATION_TYPE":"U","NORAD_CAT_ID":22287,"ELEMENT_SET_NO":999,"REV_AT_EPOCH":76854,"BSTAR":7.242105e-5,"MEAN_MOTION_DOT":5.74e-6,"MEAN_MOTION_DDOT":0}]
